0 IRIDIUM 112
1 41925U 17003J   24011.74775529  .00000481  00000-0  16466-3 0  9995
2 41925  86.3963  99.2133 0002274  99.8575 260.2878 14.34220413366072
0 IRIDIUM 111
1 41926U 17003K   24011.73507205  .00000489  00000-0  16742-3 0  9994
2 41926  86.3966  99.2696 0002333  90.4018 269.7445 14.34218116366054
0 IRIDIUM 113
1 42803U 17039A   24011.99411004  .00000093  00000-0  26076-4 0  9990
2 42803  86.3990 332.9091 0002449  84.4877 275.6598 14.34218288344024
0 IRIDIUM 123
1 42804U 17039B   24011.89605478  .00000040  00000-0  71398-5 0  9990
2 42804  86.3971   4.4395 0002417  87.7613 272.3859 14.34218633342779
0 IRIDIUM 120
1 42805U 17039C   24011.91799883 -.00000021  00000-0 -14390-4 0  9997
2 42805  86.3976 332.8388 0002109  83.4545 276.6891 14.34217358344004
0 IRIDIUM 115
1 42806U 17039D   24011.89195327  .00000670  00000-0  19324-3 0  9997
2 42806  86.4517 332.8510 0002439  84.3976 275.7503 14.43289698346286
0 IRIDIUM 118
1 42807U 17039E   24011.50915730 -.00000858  00000-0 -31332-3 0  9997
2 42807  86.3973   4.6039 0002174  93.2501 266.8943 14.34216780342716
0 IRIDIUM 117
1 42808U 17039F   24011.94677664  .00000019  00000-0 -37717-6 0  9991
2 42808  86.3972   4.3856 0002259  83.8685 276.2768 14.34214617342809
